[{"OBJECT_NAME":"STELLA","OBJECT_ID":"1993-061B","EPOCH":"2026-03-09T22:50:14.153280","MEAN_MOTION":14.2746756,"ECCENTRICITY":0.00067535,"INCLINATION":98.784,"RA_OF_ASC_NODE":132.7988,"ARG_OF_PERICENTER":156.9855,"MEAN_ANOMALY":327.7404,"EPHEMERIS_TYPE":0,"CLASSIFICATION_TYPE":"U","NORAD_CAT_ID":22824,"ELEMENT_SET_NO":999,"REV_AT_EPOCH":69061,"BSTAR":7.617075e-6,"MEAN_MOTION_DOT":-2.6e-7,"MEAN_MOTION_DDOT":0},{"OBJECT_NAME":"DMSP 5D-3 F19 DEB","OBJECT_ID":"2014-015D","EPOCH":"2026-03-09T22:14:05.417376","MEAN_MOTION":14.26006691,"ECCENTRICITY":0.000588,"INCLINATION":98.6763,"RA_OF_ASC_NODE":82.6302,"ARG_OF_PERICENTER":56.5689,"MEAN_ANOMALY":303.6052,"EPHEMERIS_TYPE":0,"CLASSIFICATION_TYPE":"U","NORAD_CAT_ID":39633,"ELEMENT_SET_NO":999,"REV_AT_EPOCH":61749,"BSTAR":0.0010246225,"MEAN_MOTION_DOT":2.402e-5,"MEAN_MOTION_DDOT":0}]
